<?xml version="1.0" encoding="UTF-8"?>
<kml xmlns="http://www.opengis.net/kml/2.2" xmlns:gx="http://www.google.com/kml/ext/2.2" xmlns:kml="http://www.opengis.net/kml/2.2" xmlns:atom="http://www.w3.org/2005/Atom">
<Document>
<Style id="route_n">
<IconStyle>
<Icon>
<href>http://maps.google.com/mapfiles/kml/paddle/blu-blank.png</href>
</Icon>
</IconStyle>
</Style>
<StyleMap id="route">
<Pair>
<key>normal</key>
<styleUrl>#route_n</styleUrl>
</Pair>
<Pair>
<key>highlight</key>
<styleUrl>#route_h</styleUrl>
</Pair>
</StyleMap>
<Style id="route_h">
<IconStyle>
<scale>1.2</scale>
<Icon>
<href>http://maps.google.com/mapfiles/kml/paddle/blu-blank.png</href>
</Icon>
</IconStyle>
</Style>
<Folder>
<name>Routes</name>
<Folder>
<name>川越小室・小ケ谷</name>
<Folder>
<name>Points</name>
<Placemark>
<name>NX0012</name>
<TimeStamp><when>2026-07-06T09:21:03Z</when></TimeStamp>
<styleUrl>#route</styleUrl>
<Point>
<coordinates>139.463701,35.915870,-0.001000</coordinates>
</Point>
<ExtendedData>
	<Data name="IconNumber">
		<value>901001</value>
	</Data>
</ExtendedData>
</Placemark>
<Placemark>
<name>HT0002</name>
<TimeStamp><when>2026-07-06T09:21:13Z</when></TimeStamp>
<styleUrl>#route</styleUrl>
<Point>
<coordinates>139.463602,35.915885,-0.001000</coordinates>
</Point>
<ExtendedData>
	<Data name="IconNumber">
		<value>901001</value>
	</Data>
</ExtendedData>
</Placemark>
<Placemark>
<name>HT0003</name>
<TimeStamp><when>2026-07-06T09:21:23Z</when></TimeStamp>
<styleUrl>#route</styleUrl>
<Point>
<coordinates>139.462974,35.915928,-0.001000</coordinates>
</Point>
<ExtendedData>
	<Data name="IconNumber">
		<value>901001</value>
	</Data>
</ExtendedData>
</Placemark>
<Placemark>
<name>HT0004</name>
<TimeStamp><when>2026-07-06T09:21:33Z</when></TimeStamp>
<styleUrl>#route</styleUrl>
<Point>
<coordinates>139.462749,35.915937,-0.001000</coordinates>
</Point>
<ExtendedData>
	<Data name="IconNumber">
		<value>901001</value>
	</Data>
</ExtendedData>
</Placemark>
<Placemark>
<name>HT0005</name>
<TimeStamp><when>2026-07-06T09:21:43Z</when></TimeStamp>
<styleUrl>#route</styleUrl>
<Point>
<coordinates>139.462384,35.915937,-0.001000</coordinates>
</Point>
<ExtendedData>
	<Data name="IconNumber">
		<value>901001</value>
	</Data>
</ExtendedData>
</Placemark>
<Placemark>
<name>HT0006</name>
<TimeStamp><when>2026-07-06T09:21:53Z</when></TimeStamp>
<styleUrl>#route</styleUrl>
<Point>
<coordinates>139.462288,35.915924,-0.001000</coordinates>
</Point>
<ExtendedData>
	<Data name="IconNumber">
		<value>901001</value>
	</Data>
</ExtendedData>
</Placemark>
<Placemark>
<name>HT0007</name>
<TimeStamp><when>2026-07-06T09:22:03Z</when></TimeStamp>
<styleUrl>#route</styleUrl>
<Point>
<coordinates>139.462202,35.915911,-0.001000</coordinates>
</Point>
<ExtendedData>
	<Data name="IconNumber">
		<value>901001</value>
	</Data>
</ExtendedData>
</Placemark>
<Placemark>
<name>HT0008</name>
<TimeStamp><when>2026-07-06T09:22:13Z</when></TimeStamp>
<styleUrl>#route</styleUrl>
<Point>
<coordinates>139.462068,35.915907,-0.001000</coordinates>
</Point>
<ExtendedData>
	<Data name="IconNumber">
		<value>901001</value>
	</Data>
</ExtendedData>
</Placemark>
<Placemark>
<name>HT0009</name>
<TimeStamp><when>2026-07-06T09:22:23Z</when></TimeStamp>
<styleUrl>#route</styleUrl>
<Point>
<coordinates>139.461971,35.915911,-0.001000</coordinates>
</Point>
<ExtendedData>
	<Data name="IconNumber">
		<value>901001</value>
	</Data>
</ExtendedData>
</Placemark>
<Placemark>
<name>HT0010</name>
<TimeStamp><when>2026-07-06T09:22:33Z</when></TimeStamp>
<styleUrl>#route</styleUrl>
<Point>
<coordinates>139.461874,35.915924,-0.001000</coordinates>
</Point>
<ExtendedData>
	<Data name="IconNumber">
		<value>901001</value>
	</Data>
</ExtendedData>
</Placemark>
<Placemark>
<name>HT0011</name>
<TimeStamp><when>2026-07-06T09:22:43Z</when></TimeStamp>
<styleUrl>#route</styleUrl>
<Point>
<coordinates>139.461762,35.915954,-0.001000</coordinates>
</Point>
<ExtendedData>
	<Data name="IconNumber">
		<value>901001</value>
	</Data>
</ExtendedData>
</Placemark>
<Placemark>
<name>HT0012</name>
<TimeStamp><when>2026-07-06T09:22:53Z</when></TimeStamp>
<styleUrl>#route</styleUrl>
<Point>
<coordinates>139.461644,35.915988,-0.001000</coordinates>
</Point>
<ExtendedData>
	<Data name="IconNumber">
		<value>901001</value>
	</Data>
</ExtendedData>
</Placemark>
<Placemark>
<name>HT0013</name>
<TimeStamp><when>2026-07-06T09:23:03Z</when></TimeStamp>
<styleUrl>#route</styleUrl>
<Point>
<coordinates>139.461526,35.916036,-0.001000</coordinates>
</Point>
<ExtendedData>
	<Data name="IconNumber">
		<value>901001</value>
	</Data>
</ExtendedData>
</Placemark>
<Placemark>
<name>HT0014</name>
<TimeStamp><when>2026-07-06T09:23:13Z</when></TimeStamp>
<styleUrl>#route</styleUrl>
<Point>
<coordinates>139.461376,35.916113,-0.001000</coordinates>
</Point>
<ExtendedData>
	<Data name="IconNumber">
		<value>901001</value>
	</Data>
</ExtendedData>
</Placemark>
<Placemark>
<name>HT0015</name>
<TimeStamp><when>2026-07-06T09:23:23Z</when></TimeStamp>
<styleUrl>#route</styleUrl>
<Point>
<coordinates>139.461225,35.916194,-0.001000</coordinates>
</Point>
<ExtendedData>
	<Data name="IconNumber">
		<value>901001</value>
	</Data>
</ExtendedData>
</Placemark>
<Placemark>
<name>HT0016</name>
<TimeStamp><when>2026-07-06T09:23:33Z</when></TimeStamp>
<styleUrl>#route</styleUrl>
<Point>
<coordinates>139.461097,35.916255,-0.001000</coordinates>
</Point>
<ExtendedData>
	<Data name="IconNumber">
		<value>901001</value>
	</Data>
</ExtendedData>
</Placemark>
<Placemark>
<name>HT0017</name>
<TimeStamp><when>2026-07-06T09:23:43Z</when></TimeStamp>
<styleUrl>#route</styleUrl>
<Point>
<coordinates>139.461000,35.916280,-0.001000</coordinates>
</Point>
<ExtendedData>
	<Data name="IconNumber">
		<value>901001</value>
	</Data>
</ExtendedData>
</Placemark>
<Placemark>
<name>HT0018</name>
<TimeStamp><when>2026-07-06T09:23:53Z</when></TimeStamp>
<styleUrl>#route</styleUrl>
<Point>
<coordinates>139.460861,35.916306,-0.001000</coordinates>
</Point>
<ExtendedData>
	<Data name="IconNumber">
		<value>901001</value>
	</Data>
</ExtendedData>
</Placemark>
<Placemark>
<name>HT0019</name>
<TimeStamp><when>2026-07-06T09:24:03Z</when></TimeStamp>
<styleUrl>#route</styleUrl>
<Point>
<coordinates>139.460732,35.916323,-0.001000</coordinates>
</Point>
<ExtendedData>
	<Data name="IconNumber">
		<value>901001</value>
	</Data>
</ExtendedData>
</Placemark>
<Placemark>
<name>HT0020</name>
<TimeStamp><when>2026-07-06T09:24:13Z</when></TimeStamp>
<styleUrl>#route</styleUrl>
<Point>
<coordinates>139.460576,35.916323,-0.001000</coordinates>
</Point>
<ExtendedData>
	<Data name="IconNumber">
		<value>901001</value>
	</Data>
</ExtendedData>
</Placemark>
<Placemark>
<name>HT0021</name>
<TimeStamp><when>2026-07-06T09:24:23Z</when></TimeStamp>
<styleUrl>#route</styleUrl>
<Point>
<coordinates>139.460324,35.916297,-0.001000</coordinates>
</Point>
<ExtendedData>
	<Data name="IconNumber">
		<value>901001</value>
	</Data>
</ExtendedData>
</Placemark>
<Placemark>
<name>HT0022</name>
<TimeStamp><when>2026-07-06T09:24:33Z</when></TimeStamp>
<styleUrl>#route</styleUrl>
<Point>
<coordinates>139.459863,35.916186,-0.001000</coordinates>
</Point>
<ExtendedData>
	<Data name="IconNumber">
		<value>901001</value>
	</Data>
</ExtendedData>
</Placemark>
<Placemark>
<name>HT0023</name>
<TimeStamp><when>2026-07-06T09:24:43Z</when></TimeStamp>
<styleUrl>#route</styleUrl>
<Point>
<coordinates>139.459718,35.916160,-0.001000</coordinates>
</Point>
<ExtendedData>
	<Data name="IconNumber">
		<value>901001</value>
	</Data>
</ExtendedData>
</Placemark>
<Placemark>
<name>HT0024</name>
<TimeStamp><when>2026-07-06T09:24:53Z</when></TimeStamp>
<styleUrl>#route</styleUrl>
<Point>
<coordinates>139.459562,35.916152,-0.001000</coordinates>
</Point>
<ExtendedData>
	<Data name="IconNumber">
		<value>901001</value>
	</Data>
</ExtendedData>
</Placemark>
<Placemark>
<name>HT0025</name>
<TimeStamp><when>2026-07-06T09:25:03Z</when></TimeStamp>
<styleUrl>#route</styleUrl>
<Point>
<coordinates>139.459450,35.916152,-0.001000</coordinates>
</Point>
<ExtendedData>
	<Data name="IconNumber">
		<value>901001</value>
	</Data>
</ExtendedData>
</Placemark>
<Placemark>
<name>HT0026</name>
<TimeStamp><when>2026-07-06T09:25:13Z</when></TimeStamp>
<styleUrl>#route</styleUrl>
<Point>
<coordinates>139.459348,35.916164,-0.001000</coordinates>
</Point>
<ExtendedData>
	<Data name="IconNumber">
		<value>901001</value>
	</Data>
</ExtendedData>
</Placemark>
<Placemark>
<name>HT0027</name>
<TimeStamp><when>2026-07-06T09:25:23Z</when></TimeStamp>
<styleUrl>#route</styleUrl>
<Point>
<coordinates>139.458720,35.916250,-0.001000</coordinates>
</Point>
<ExtendedData>
	<Data name="IconNumber">
		<value>901001</value>
	</Data>
</ExtendedData>
</Placemark>
<Placemark>
<name>HT0028</name>
<TimeStamp><when>2026-07-06T09:25:33Z</when></TimeStamp>
<styleUrl>#route</styleUrl>
<Point>
<coordinates>139.458527,35.916272,-0.001000</coordinates>
</Point>
<ExtendedData>
	<Data name="IconNumber">
		<value>901001</value>
	</Data>
</ExtendedData>
</Placemark>
<Placemark>
<name>HT0029</name>
<TimeStamp><when>2026-07-06T09:25:43Z</when></TimeStamp>
<styleUrl>#route</styleUrl>
<Point>
<coordinates>139.458425,35.916285,-0.001000</coordinates>
</Point>
<ExtendedData>
	<Data name="IconNumber">
		<value>901001</value>
	</Data>
</ExtendedData>
</Placemark>
<Placemark>
<name>HT0030</name>
<TimeStamp><when>2026-07-06T09:25:53Z</when></TimeStamp>
<styleUrl>#route</styleUrl>
<Point>
<coordinates>139.458146,35.916297,-0.001000</coordinates>
</Point>
<ExtendedData>
	<Data name="IconNumber">
		<value>901001</value>
	</Data>
</ExtendedData>
</Placemark>
<Placemark>
<name>HT0031</name>
<TimeStamp><when>2026-07-06T09:26:03Z</when></TimeStamp>
<styleUrl>#route</styleUrl>
<Point>
<coordinates>139.457642,35.916160,-0.001000</coordinates>
</Point>
<ExtendedData>
	<Data name="IconNumber">
		<value>901001</value>
	</Data>
</ExtendedData>
</Placemark>
<Placemark>
<name>HT0032</name>
<TimeStamp><when>2026-07-06T09:26:13Z</when></TimeStamp>
<styleUrl>#route</styleUrl>
<Point>
<coordinates>139.457465,35.916096,-0.001000</coordinates>
</Point>
<ExtendedData>
	<Data name="IconNumber">
		<value>901001</value>
	</Data>
</ExtendedData>
</Placemark>
<Placemark>
<name>HT0033</name>
<TimeStamp><when>2026-07-06T09:26:23Z</when></TimeStamp>
<styleUrl>#route</styleUrl>
<Point>
<coordinates>139.457261,35.916014,-0.001000</coordinates>
</Point>
<ExtendedData>
	<Data name="IconNumber">
		<value>901001</value>
	</Data>
</ExtendedData>
</Placemark>
<Placemark>
<name>HT0034</name>
<TimeStamp><when>2026-07-06T09:26:33Z</when></TimeStamp>
<styleUrl>#route</styleUrl>
<Point>
<coordinates>139.457030,35.915915,-0.001000</coordinates>
</Point>
<ExtendedData>
	<Data name="IconNumber">
		<value>901001</value>
	</Data>
</ExtendedData>
</Placemark>
<Placemark>
<name>HT0035</name>
<TimeStamp><when>2026-07-06T09:26:43Z</when></TimeStamp>
<styleUrl>#route</styleUrl>
<Point>
<coordinates>139.456816,35.915808,-0.001000</coordinates>
</Point>
<ExtendedData>
	<Data name="IconNumber">
		<value>901001</value>
	</Data>
</ExtendedData>
</Placemark>
<Placemark>
<name>HT0036</name>
<TimeStamp><when>2026-07-06T09:26:53Z</when></TimeStamp>
<styleUrl>#route</styleUrl>
<Point>
<coordinates>139.456671,35.915731,-0.001000</coordinates>
</Point>
<ExtendedData>
	<Data name="IconNumber">
		<value>901001</value>
	</Data>
</ExtendedData>
</Placemark>
<Placemark>
<name>HT0037</name>
<TimeStamp><when>2026-07-06T09:27:03Z</when></TimeStamp>
<styleUrl>#route</styleUrl>
<Point>
<coordinates>139.456548,35.915688,-0.001000</coordinates>
</Point>
<ExtendedData>
	<Data name="IconNumber">
		<value>901001</value>
	</Data>
</ExtendedData>
</Placemark>
<Placemark>
<name>ST0006</name>
<TimeStamp><when>2026-07-06T09:27:13Z</when></TimeStamp>
<styleUrl>#route</styleUrl>
<Point>
<coordinates>139.456440,35.915674,-0.001000</coordinates>
</Point>
<ExtendedData>
	<Data name="IconNumber">
		<value>901001</value>
	</Data>
</ExtendedData>
</Placemark>
</Folder>
<Placemark>
<name>Path</name>
<Style>
<LineStyle>
 <color>ff0000ff</color>
 <width>2</width>
</LineStyle>
</Style>
<LineString>
<tessellate>1</tessellate>
<coordinates>
139.463701,35.915870,-0.001000
139.463602,35.915885,-0.001000
139.462974,35.915928,-0.001000
139.462749,35.915937,-0.001000
139.462384,35.915937,-0.001000
139.462288,35.915924,-0.001000
139.462202,35.915911,-0.001000
139.462068,35.915907,-0.001000
139.461971,35.915911,-0.001000
139.461874,35.915924,-0.001000
139.461762,35.915954,-0.001000
139.461644,35.915988,-0.001000
139.461526,35.916036,-0.001000
139.461376,35.916113,-0.001000
139.461225,35.916194,-0.001000
139.461097,35.916255,-0.001000
139.461000,35.916280,-0.001000
139.460861,35.916306,-0.001000
139.460732,35.916323,-0.001000
139.460576,35.916323,-0.001000
139.460324,35.916297,-0.001000
139.459863,35.916186,-0.001000
139.459718,35.916160,-0.001000
139.459562,35.916152,-0.001000
139.459450,35.916152,-0.001000
139.459348,35.916164,-0.001000
139.458720,35.916250,-0.001000
139.458527,35.916272,-0.001000
139.458425,35.916285,-0.001000
139.458146,35.916297,-0.001000
139.457642,35.916160,-0.001000
139.457465,35.916096,-0.001000
139.457261,35.916014,-0.001000
139.457030,35.915915,-0.001000
139.456816,35.915808,-0.001000
139.456671,35.915731,-0.001000
139.456548,35.915688,-0.001000
139.456440,35.915674,-0.001000
</coordinates>
</LineString>
</Placemark>
</Folder>
<Folder>
<name>川越市福田南西</name>
<Folder>
<name>Points</name>
<Placemark>
<name>HS0001</name>
<TimeStamp><when>2026-07-06T09:16:23Z</when></TimeStamp>
<styleUrl>#route</styleUrl>
<Point>
<coordinates>139.474642,35.950248,-0.001000</coordinates>
</Point>
<ExtendedData>
	<Data name="IconNumber">
		<value>901001</value>
	</Data>
</ExtendedData>
</Placemark>
<Placemark>
<name>HS0002</name>
<TimeStamp><when>2026-07-06T09:16:33Z</when></TimeStamp>
<styleUrl>#route</styleUrl>
<Point>
<coordinates>139.474556,35.950286,-0.001000</coordinates>
</Point>
<ExtendedData>
	<Data name="IconNumber">
		<value>901001</value>
	</Data>
</ExtendedData>
</Placemark>
<Placemark>
<name>HS0003</name>
<TimeStamp><when>2026-07-06T09:16:43Z</when></TimeStamp>
<styleUrl>#route</styleUrl>
<Point>
<coordinates>139.474406,35.950394,-0.001000</coordinates>
</Point>
<ExtendedData>
	<Data name="IconNumber">
		<value>901001</value>
	</Data>
</ExtendedData>
</Placemark>
<Placemark>
<name>HS0004</name>
<TimeStamp><when>2026-07-06T09:16:53Z</when></TimeStamp>
<styleUrl>#route</styleUrl>
<Point>
<coordinates>139.474207,35.950801,-0.001000</coordinates>
</Point>
<ExtendedData>
	<Data name="IconNumber">
		<value>901001</value>
	</Data>
</ExtendedData>
</Placemark>
<Placemark>
<name>HS0005</name>
<TimeStamp><when>2026-07-06T09:17:03Z</when></TimeStamp>
<styleUrl>#route</styleUrl>
<Point>
<coordinates>139.474164,35.950917,-0.001000</coordinates>
</Point>
<ExtendedData>
	<Data name="IconNumber">
		<value>901001</value>
	</Data>
</ExtendedData>
</Placemark>
<Placemark>
<name>HS0006</name>
<TimeStamp><when>2026-07-06T09:17:13Z</when></TimeStamp>
<styleUrl>#route</styleUrl>
<Point>
<coordinates>139.473848,35.951514,-0.001000</coordinates>
</Point>
<ExtendedData>
	<Data name="IconNumber">
		<value>901001</value>
	</Data>
</ExtendedData>
</Placemark>
</Folder>
<Placemark>
<name>Path</name>
<Style>
<LineStyle>
 <color>ff0000ff</color>
 <width>2</width>
</LineStyle>
</Style>
<LineString>
<tessellate>1</tessellate>
<coordinates>
139.474642,35.950248,-0.001000
139.474556,35.950286,-0.001000
139.474406,35.950394,-0.001000
139.474207,35.950801,-0.001000
139.474164,35.950917,-0.001000
139.473848,35.951514,-0.001000
</coordinates>
</LineString>
</Placemark>
</Folder>
</Folder>
</Document>
</kml>
