<?xml version="1.0" encoding="UTF-8"?>
<kml xmlns="http://www.opengis.net/kml/2.2" xmlns:gx="http://www.google.com/kml/ext/2.2" xmlns:kml="http://www.opengis.net/kml/2.2" xmlns:atom="http://www.w3.org/2005/Atom">
<Document>
<Style id="route_n">
<IconStyle>
<Icon>
<href>http://maps.google.com/mapfiles/kml/paddle/blu-blank.png</href>
</Icon>
</IconStyle>
</Style>
<StyleMap id="route">
<Pair>
<key>normal</key>
<styleUrl>#route_n</styleUrl>
</Pair>
<Pair>
<key>highlight</key>
<styleUrl>#route_h</styleUrl>
</Pair>
</StyleMap>
<Style id="route_h">
<IconStyle>
<scale>1.2</scale>
<Icon>
<href>http://maps.google.com/mapfiles/kml/paddle/blu-blank.png</href>
</Icon>
</IconStyle>
</Style>
<Folder>
<name>Routes</name>
<Folder>
<name>南永井・秩父学園</name>
<Folder>
<name>Points</name>
<Placemark>
<name>GC0001</name>
<TimeStamp><when>2026-06-04T21:17:58Z</when></TimeStamp>
<styleUrl>#route</styleUrl>
<Point>
<coordinates>139.515454,35.817880,-0.001000</coordinates>
</Point>
<ExtendedData>
	<Data name="IconNumber">
		<value>901001</value>
	</Data>
</ExtendedData>
</Placemark>
<Placemark>
<name>GC0002</name>
<TimeStamp><when>2026-06-04T21:18:08Z</when></TimeStamp>
<styleUrl>#route</styleUrl>
<Point>
<coordinates>139.515165,35.817631,-0.001000</coordinates>
</Point>
<ExtendedData>
	<Data name="IconNumber">
		<value>901001</value>
	</Data>
</ExtendedData>
</Placemark>
<Placemark>
<name>GC0003</name>
<TimeStamp><when>2026-06-04T21:18:18Z</when></TimeStamp>
<styleUrl>#route</styleUrl>
<Point>
<coordinates>139.515052,35.817541,-0.001000</coordinates>
</Point>
<ExtendedData>
	<Data name="IconNumber">
		<value>901001</value>
	</Data>
</ExtendedData>
</Placemark>
<Placemark>
<name>GC0004</name>
<TimeStamp><when>2026-06-04T21:18:28Z</when></TimeStamp>
<styleUrl>#route</styleUrl>
<Point>
<coordinates>139.514875,35.817425,-0.001000</coordinates>
</Point>
<ExtendedData>
	<Data name="IconNumber">
		<value>901001</value>
	</Data>
</ExtendedData>
</Placemark>
<Placemark>
<name>GC0005</name>
<TimeStamp><when>2026-06-04T21:18:38Z</when></TimeStamp>
<styleUrl>#route</styleUrl>
<Point>
<coordinates>139.514338,35.817202,-0.001000</coordinates>
</Point>
<ExtendedData>
	<Data name="IconNumber">
		<value>901001</value>
	</Data>
</ExtendedData>
</Placemark>
<Placemark>
<name>GC0006</name>
<TimeStamp><when>2026-06-04T21:18:48Z</when></TimeStamp>
<styleUrl>#route</styleUrl>
<Point>
<coordinates>139.514167,35.817124,-0.001000</coordinates>
</Point>
<ExtendedData>
	<Data name="IconNumber">
		<value>901001</value>
	</Data>
</ExtendedData>
</Placemark>
<Placemark>
<name>GC0007</name>
<TimeStamp><when>2026-06-04T21:18:58Z</when></TimeStamp>
<styleUrl>#route</styleUrl>
<Point>
<coordinates>139.513153,35.816644,-0.001000</coordinates>
</Point>
<ExtendedData>
	<Data name="IconNumber">
		<value>901001</value>
	</Data>
</ExtendedData>
</Placemark>
<Placemark>
<name>GC0008</name>
<TimeStamp><when>2026-06-04T21:19:08Z</when></TimeStamp>
<styleUrl>#route</styleUrl>
<Point>
<coordinates>139.512997,35.816566,-0.001000</coordinates>
</Point>
<ExtendedData>
	<Data name="IconNumber">
		<value>901001</value>
	</Data>
</ExtendedData>
</Placemark>
<Placemark>
<name>GC0009</name>
<TimeStamp><when>2026-06-04T21:19:18Z</when></TimeStamp>
<styleUrl>#route</styleUrl>
<Point>
<coordinates>139.512590,35.816416,-0.001000</coordinates>
</Point>
<ExtendedData>
	<Data name="IconNumber">
		<value>901001</value>
	</Data>
</ExtendedData>
</Placemark>
<Placemark>
<name>GC0010</name>
<TimeStamp><when>2026-06-04T21:19:28Z</when></TimeStamp>
<styleUrl>#route</styleUrl>
<Point>
<coordinates>139.512439,35.816365,-0.001000</coordinates>
</Point>
<ExtendedData>
	<Data name="IconNumber">
		<value>901001</value>
	</Data>
</ExtendedData>
</Placemark>
<Placemark>
<name>GC0011</name>
<TimeStamp><when>2026-06-04T21:19:38Z</when></TimeStamp>
<styleUrl>#route</styleUrl>
<Point>
<coordinates>139.512010,35.816257,-0.001000</coordinates>
</Point>
<ExtendedData>
	<Data name="IconNumber">
		<value>901001</value>
	</Data>
</ExtendedData>
</Placemark>
<Placemark>
<name>GC0012</name>
<TimeStamp><when>2026-06-04T21:19:48Z</when></TimeStamp>
<styleUrl>#route</styleUrl>
<Point>
<coordinates>139.511302,35.816120,-0.001000</coordinates>
</Point>
<ExtendedData>
	<Data name="IconNumber">
		<value>901001</value>
	</Data>
</ExtendedData>
</Placemark>
<Placemark>
<name>GC0013</name>
<TimeStamp><when>2026-06-04T21:19:58Z</when></TimeStamp>
<styleUrl>#route</styleUrl>
<Point>
<coordinates>139.511109,35.816051,-0.001000</coordinates>
</Point>
<ExtendedData>
	<Data name="IconNumber">
		<value>901001</value>
	</Data>
</ExtendedData>
</Placemark>
<Placemark>
<name>GC0014</name>
<TimeStamp><when>2026-06-04T21:20:08Z</when></TimeStamp>
<styleUrl>#route</styleUrl>
<Point>
<coordinates>139.510659,35.815880,-0.001000</coordinates>
</Point>
<ExtendedData>
	<Data name="IconNumber">
		<value>901001</value>
	</Data>
</ExtendedData>
</Placemark>
<Placemark>
<name>GC0015</name>
<TimeStamp><when>2026-06-04T21:20:18Z</when></TimeStamp>
<styleUrl>#route</styleUrl>
<Point>
<coordinates>139.510224,35.815725,-0.001000</coordinates>
</Point>
<ExtendedData>
	<Data name="IconNumber">
		<value>901001</value>
	</Data>
</ExtendedData>
</Placemark>
<Placemark>
<name>GC0016</name>
<TimeStamp><when>2026-06-04T21:20:28Z</when></TimeStamp>
<styleUrl>#route</styleUrl>
<Point>
<coordinates>139.509194,35.815442,-0.001000</coordinates>
</Point>
<ExtendedData>
	<Data name="IconNumber">
		<value>901001</value>
	</Data>
</ExtendedData>
</Placemark>
<Placemark>
<name>GC0017</name>
<TimeStamp><when>2026-06-04T21:20:38Z</when></TimeStamp>
<styleUrl>#route</styleUrl>
<Point>
<coordinates>139.509044,35.815391,-0.001000</coordinates>
</Point>
<ExtendedData>
	<Data name="IconNumber">
		<value>901001</value>
	</Data>
</ExtendedData>
</Placemark>
<Placemark>
<name>GC0018</name>
<TimeStamp><when>2026-06-04T21:20:48Z</when></TimeStamp>
<styleUrl>#route</styleUrl>
<Point>
<coordinates>139.508014,35.815026,-0.001000</coordinates>
</Point>
<ExtendedData>
	<Data name="IconNumber">
		<value>901001</value>
	</Data>
</ExtendedData>
</Placemark>
<Placemark>
<name>GC0019</name>
<TimeStamp><when>2026-06-04T21:20:58Z</when></TimeStamp>
<styleUrl>#route</styleUrl>
<Point>
<coordinates>139.507617,35.814927,-0.001000</coordinates>
</Point>
<ExtendedData>
	<Data name="IconNumber">
		<value>901001</value>
	</Data>
</ExtendedData>
</Placemark>
<Placemark>
<name>GC0020</name>
<TimeStamp><when>2026-06-04T21:21:08Z</when></TimeStamp>
<styleUrl>#route</styleUrl>
<Point>
<coordinates>139.506898,35.814785,-0.001000</coordinates>
</Point>
<ExtendedData>
	<Data name="IconNumber">
		<value>901001</value>
	</Data>
</ExtendedData>
</Placemark>
<Placemark>
<name>GC0021</name>
<TimeStamp><when>2026-06-04T21:21:18Z</when></TimeStamp>
<styleUrl>#route</styleUrl>
<Point>
<coordinates>139.506313,35.814670,-0.001000</coordinates>
</Point>
<ExtendedData>
	<Data name="IconNumber">
		<value>901001</value>
	</Data>
</ExtendedData>
</Placemark>
<Placemark>
<name>GC0022</name>
<TimeStamp><when>2026-06-04T21:21:28Z</when></TimeStamp>
<styleUrl>#route</styleUrl>
<Point>
<coordinates>139.505750,35.814597,-0.001000</coordinates>
</Point>
<ExtendedData>
	<Data name="IconNumber">
		<value>901001</value>
	</Data>
</ExtendedData>
</Placemark>
<Placemark>
<name>GC0023</name>
<TimeStamp><when>2026-06-04T21:21:38Z</when></TimeStamp>
<styleUrl>#route</styleUrl>
<Point>
<coordinates>139.504886,35.814485,-0.001000</coordinates>
</Point>
<ExtendedData>
	<Data name="IconNumber">
		<value>901001</value>
	</Data>
</ExtendedData>
</Placemark>
<Placemark>
<name>GC0024</name>
<TimeStamp><when>2026-06-04T21:21:48Z</when></TimeStamp>
<styleUrl>#route</styleUrl>
<Point>
<coordinates>139.503883,35.814266,-0.001000</coordinates>
</Point>
<ExtendedData>
	<Data name="IconNumber">
		<value>901001</value>
	</Data>
</ExtendedData>
</Placemark>
<Placemark>
<name>GC0025</name>
<TimeStamp><when>2026-06-04T21:21:58Z</when></TimeStamp>
<styleUrl>#route</styleUrl>
<Point>
<coordinates>139.503486,35.814198,-0.001000</coordinates>
</Point>
<ExtendedData>
	<Data name="IconNumber">
		<value>901001</value>
	</Data>
</ExtendedData>
</Placemark>
<Placemark>
<name>GC0026</name>
<TimeStamp><when>2026-06-04T21:22:08Z</when></TimeStamp>
<styleUrl>#route</styleUrl>
<Point>
<coordinates>139.503293,35.814172,-0.001000</coordinates>
</Point>
<ExtendedData>
	<Data name="IconNumber">
		<value>901001</value>
	</Data>
</ExtendedData>
</Placemark>
<Placemark>
<name>GC0027</name>
<TimeStamp><when>2026-06-04T21:22:18Z</when></TimeStamp>
<styleUrl>#route</styleUrl>
<Point>
<coordinates>139.502419,35.814069,-0.001000</coordinates>
</Point>
<ExtendedData>
	<Data name="IconNumber">
		<value>901001</value>
	</Data>
</ExtendedData>
</Placemark>
<Placemark>
<name>GC0028</name>
<TimeStamp><when>2026-06-04T21:22:28Z</when></TimeStamp>
<styleUrl>#route</styleUrl>
<Point>
<coordinates>139.502183,35.814043,-0.001000</coordinates>
</Point>
<ExtendedData>
	<Data name="IconNumber">
		<value>901001</value>
	</Data>
</ExtendedData>
</Placemark>
<Placemark>
<name>GC0029</name>
<TimeStamp><when>2026-06-04T21:22:38Z</when></TimeStamp>
<styleUrl>#route</styleUrl>
<Point>
<coordinates>139.501974,35.814017,-0.001000</coordinates>
</Point>
<ExtendedData>
	<Data name="IconNumber">
		<value>901001</value>
	</Data>
</ExtendedData>
</Placemark>
<Placemark>
<name>GC0030</name>
<TimeStamp><when>2026-06-04T21:22:48Z</when></TimeStamp>
<styleUrl>#route</styleUrl>
<Point>
<coordinates>139.501083,35.813850,-0.001000</coordinates>
</Point>
<ExtendedData>
	<Data name="IconNumber">
		<value>901001</value>
	</Data>
</ExtendedData>
</Placemark>
<Placemark>
<name>GC0031</name>
<TimeStamp><when>2026-06-04T21:22:58Z</when></TimeStamp>
<styleUrl>#route</styleUrl>
<Point>
<coordinates>139.500804,35.813794,-0.001000</coordinates>
</Point>
<ExtendedData>
	<Data name="IconNumber">
		<value>901001</value>
	</Data>
</ExtendedData>
</Placemark>
<Placemark>
<name>GC0032</name>
<TimeStamp><when>2026-06-04T21:23:08Z</when></TimeStamp>
<styleUrl>#route</styleUrl>
<Point>
<coordinates>139.500648,35.813756,-0.001000</coordinates>
</Point>
<ExtendedData>
	<Data name="IconNumber">
		<value>901001</value>
	</Data>
</ExtendedData>
</Placemark>
<Placemark>
<name>GC0033</name>
<TimeStamp><when>2026-06-04T21:23:18Z</when></TimeStamp>
<styleUrl>#route</styleUrl>
<Point>
<coordinates>139.500412,35.813687,-0.001000</coordinates>
</Point>
<ExtendedData>
	<Data name="IconNumber">
		<value>901001</value>
	</Data>
</ExtendedData>
</Placemark>
<Placemark>
<name>GC0034</name>
<TimeStamp><when>2026-06-04T21:23:28Z</when></TimeStamp>
<styleUrl>#route</styleUrl>
<Point>
<coordinates>139.500273,35.813622,-0.001000</coordinates>
</Point>
<ExtendedData>
	<Data name="IconNumber">
		<value>901001</value>
	</Data>
</ExtendedData>
</Placemark>
<Placemark>
<name>GC0035</name>
<TimeStamp><when>2026-06-04T21:23:38Z</when></TimeStamp>
<styleUrl>#route</styleUrl>
<Point>
<coordinates>139.500112,35.813541,-0.001000</coordinates>
</Point>
<ExtendedData>
	<Data name="IconNumber">
		<value>901001</value>
	</Data>
</ExtendedData>
</Placemark>
<Placemark>
<name>GC0036</name>
<TimeStamp><when>2026-06-04T21:23:48Z</when></TimeStamp>
<styleUrl>#route</styleUrl>
<Point>
<coordinates>139.499624,35.813210,-0.001000</coordinates>
</Point>
<ExtendedData>
	<Data name="IconNumber">
		<value>901001</value>
	</Data>
</ExtendedData>
</Placemark>
<Placemark>
<name>GC0037</name>
<TimeStamp><when>2026-06-04T21:23:58Z</when></TimeStamp>
<styleUrl>#route</styleUrl>
<Point>
<coordinates>139.499468,35.813125,-0.001000</coordinates>
</Point>
<ExtendedData>
	<Data name="IconNumber">
		<value>901001</value>
	</Data>
</ExtendedData>
</Placemark>
<Placemark>
<name>GC0038</name>
<TimeStamp><when>2026-06-04T21:24:08Z</when></TimeStamp>
<styleUrl>#route</styleUrl>
<Point>
<coordinates>139.499082,35.812850,-0.001000</coordinates>
</Point>
<ExtendedData>
	<Data name="IconNumber">
		<value>901001</value>
	</Data>
</ExtendedData>
</Placemark>
<Placemark>
<name>GC0039</name>
<TimeStamp><when>2026-06-04T21:24:18Z</when></TimeStamp>
<styleUrl>#route</styleUrl>
<Point>
<coordinates>139.498819,35.812631,-0.001000</coordinates>
</Point>
<ExtendedData>
	<Data name="IconNumber">
		<value>901001</value>
	</Data>
</ExtendedData>
</Placemark>
<Placemark>
<name>GC0040</name>
<TimeStamp><when>2026-06-04T21:24:28Z</when></TimeStamp>
<styleUrl>#route</styleUrl>
<Point>
<coordinates>139.498594,35.812429,-0.001000</coordinates>
</Point>
<ExtendedData>
	<Data name="IconNumber">
		<value>901001</value>
	</Data>
</ExtendedData>
</Placemark>
<Placemark>
<name>GC0041</name>
<TimeStamp><when>2026-06-04T21:24:38Z</when></TimeStamp>
<styleUrl>#route</styleUrl>
<Point>
<coordinates>139.498176,35.812056,-0.001000</coordinates>
</Point>
<ExtendedData>
	<Data name="IconNumber">
		<value>901001</value>
	</Data>
</ExtendedData>
</Placemark>
<Placemark>
<name>GC0042</name>
<TimeStamp><when>2026-06-04T21:24:48Z</when></TimeStamp>
<styleUrl>#route</styleUrl>
<Point>
<coordinates>139.498004,35.811914,-0.001000</coordinates>
</Point>
<ExtendedData>
	<Data name="IconNumber">
		<value>901001</value>
	</Data>
</ExtendedData>
</Placemark>
<Placemark>
<name>GC0043</name>
<TimeStamp><when>2026-06-04T21:24:58Z</when></TimeStamp>
<styleUrl>#route</styleUrl>
<Point>
<coordinates>139.497870,35.811811,-0.001000</coordinates>
</Point>
<ExtendedData>
	<Data name="IconNumber">
		<value>901001</value>
	</Data>
</ExtendedData>
</Placemark>
<Placemark>
<name>GC0044</name>
<TimeStamp><when>2026-06-04T21:25:08Z</when></TimeStamp>
<styleUrl>#route</styleUrl>
<Point>
<coordinates>139.497720,35.811708,-0.001000</coordinates>
</Point>
<ExtendedData>
	<Data name="IconNumber">
		<value>901001</value>
	</Data>
</ExtendedData>
</Placemark>
<Placemark>
<name>GC0045</name>
<TimeStamp><when>2026-06-04T21:25:18Z</when></TimeStamp>
<styleUrl>#route</styleUrl>
<Point>
<coordinates>139.497505,35.811640,-0.001000</coordinates>
</Point>
<ExtendedData>
	<Data name="IconNumber">
		<value>901001</value>
	</Data>
</ExtendedData>
</Placemark>
<Placemark>
<name>GC0046</name>
<TimeStamp><when>2026-06-04T21:25:28Z</when></TimeStamp>
<styleUrl>#route</styleUrl>
<Point>
<coordinates>139.496920,35.811511,-0.001000</coordinates>
</Point>
<ExtendedData>
	<Data name="IconNumber">
		<value>901001</value>
	</Data>
</ExtendedData>
</Placemark>
<Placemark>
<name>GC0047</name>
<TimeStamp><when>2026-06-04T21:25:38Z</when></TimeStamp>
<styleUrl>#route</styleUrl>
<Point>
<coordinates>139.496598,35.811434,-0.001000</coordinates>
</Point>
<ExtendedData>
	<Data name="IconNumber">
		<value>901001</value>
	</Data>
</ExtendedData>
</Placemark>
<Placemark>
<name>GC0048</name>
<TimeStamp><when>2026-06-04T21:25:48Z</when></TimeStamp>
<styleUrl>#route</styleUrl>
<Point>
<coordinates>139.496400,35.811378,-0.001000</coordinates>
</Point>
<ExtendedData>
	<Data name="IconNumber">
		<value>901001</value>
	</Data>
</ExtendedData>
</Placemark>
<Placemark>
<name>GC0049</name>
<TimeStamp><when>2026-06-04T21:25:58Z</when></TimeStamp>
<styleUrl>#route</styleUrl>
<Point>
<coordinates>139.496234,35.811322,-0.001000</coordinates>
</Point>
<ExtendedData>
	<Data name="IconNumber">
		<value>901001</value>
	</Data>
</ExtendedData>
</Placemark>
<Placemark>
<name>GC0050</name>
<TimeStamp><when>2026-06-04T21:26:08Z</when></TimeStamp>
<styleUrl>#route</styleUrl>
<Point>
<coordinates>139.496051,35.811241,-0.001000</coordinates>
</Point>
<ExtendedData>
	<Data name="IconNumber">
		<value>901001</value>
	</Data>
</ExtendedData>
</Placemark>
<Placemark>
<name>GC0051</name>
<TimeStamp><when>2026-06-04T21:26:18Z</when></TimeStamp>
<styleUrl>#route</styleUrl>
<Point>
<coordinates>139.495933,35.811168,-0.001000</coordinates>
</Point>
<ExtendedData>
	<Data name="IconNumber">
		<value>901001</value>
	</Data>
</ExtendedData>
</Placemark>
<Placemark>
<name>GC0052</name>
<TimeStamp><when>2026-06-04T21:26:28Z</when></TimeStamp>
<styleUrl>#route</styleUrl>
<Point>
<coordinates>139.495735,35.811018,-0.001000</coordinates>
</Point>
<ExtendedData>
	<Data name="IconNumber">
		<value>901001</value>
	</Data>
</ExtendedData>
</Placemark>
<Placemark>
<name>GC0053</name>
<TimeStamp><when>2026-06-04T21:26:38Z</when></TimeStamp>
<styleUrl>#route</styleUrl>
<Point>
<coordinates>139.495177,35.810558,-0.001000</coordinates>
</Point>
<ExtendedData>
	<Data name="IconNumber">
		<value>901001</value>
	</Data>
</ExtendedData>
</Placemark>
<Placemark>
<name>GC0054</name>
<TimeStamp><when>2026-06-04T21:26:48Z</when></TimeStamp>
<styleUrl>#route</styleUrl>
<Point>
<coordinates>139.494823,35.810288,-0.001000</coordinates>
</Point>
<ExtendedData>
	<Data name="IconNumber">
		<value>901001</value>
	</Data>
</ExtendedData>
</Placemark>
<Placemark>
<name>GC0055</name>
<TimeStamp><when>2026-06-04T21:26:58Z</when></TimeStamp>
<styleUrl>#route</styleUrl>
<Point>
<coordinates>139.494265,35.809842,-0.001000</coordinates>
</Point>
<ExtendedData>
	<Data name="IconNumber">
		<value>901001</value>
	</Data>
</ExtendedData>
</Placemark>
<Placemark>
<name>GC0056</name>
<TimeStamp><when>2026-06-04T21:27:08Z</when></TimeStamp>
<styleUrl>#route</styleUrl>
<Point>
<coordinates>139.493889,35.809528,-0.001000</coordinates>
</Point>
<ExtendedData>
	<Data name="IconNumber">
		<value>901001</value>
	</Data>
</ExtendedData>
</Placemark>
<Placemark>
<name>GC0057</name>
<TimeStamp><when>2026-06-04T21:27:18Z</when></TimeStamp>
<styleUrl>#route</styleUrl>
<Point>
<coordinates>139.493514,35.809228,-0.001000</coordinates>
</Point>
<ExtendedData>
	<Data name="IconNumber">
		<value>901001</value>
	</Data>
</ExtendedData>
</Placemark>
<Placemark>
<name>KP0006</name>
<TimeStamp><when>2026-06-04T21:27:28Z</when></TimeStamp>
<styleUrl>#route</styleUrl>
<Point>
<coordinates>139.493043,35.808836,-0.001000</coordinates>
</Point>
<ExtendedData>
	<Data name="IconNumber">
		<value>901001</value>
	</Data>
</ExtendedData>
</Placemark>
<Placemark>
<name>GC0059</name>
<TimeStamp><when>2026-06-04T21:27:38Z</when></TimeStamp>
<styleUrl>#route</styleUrl>
<Point>
<coordinates>139.492248,35.808219,-0.001000</coordinates>
</Point>
<ExtendedData>
	<Data name="IconNumber">
		<value>901001</value>
	</Data>
</ExtendedData>
</Placemark>
<Placemark>
<name>GC0060</name>
<TimeStamp><when>2026-06-04T21:27:48Z</when></TimeStamp>
<styleUrl>#route</styleUrl>
<Point>
<coordinates>139.491770,35.807833,-0.001000</coordinates>
</Point>
<ExtendedData>
	<Data name="IconNumber">
		<value>901001</value>
	</Data>
</ExtendedData>
</Placemark>
<Placemark>
<name>GC0061</name>
<TimeStamp><when>2026-06-04T21:27:58Z</when></TimeStamp>
<styleUrl>#route</styleUrl>
<Point>
<coordinates>139.490998,35.807237,-0.001000</coordinates>
</Point>
<ExtendedData>
	<Data name="IconNumber">
		<value>901001</value>
	</Data>
</ExtendedData>
</Placemark>
<Placemark>
<name>GC0062</name>
<TimeStamp><when>2026-06-04T21:28:08Z</when></TimeStamp>
<styleUrl>#route</styleUrl>
<Point>
<coordinates>139.490660,35.807001,-0.001000</coordinates>
</Point>
<ExtendedData>
	<Data name="IconNumber">
		<value>901001</value>
	</Data>
</ExtendedData>
</Placemark>
<Placemark>
<name>GC0063</name>
<TimeStamp><when>2026-06-04T21:28:18Z</when></TimeStamp>
<styleUrl>#route</styleUrl>
<Point>
<coordinates>139.490252,35.806726,-0.001000</coordinates>
</Point>
<ExtendedData>
	<Data name="IconNumber">
		<value>901001</value>
	</Data>
</ExtendedData>
</Placemark>
<Placemark>
<name>GC0064</name>
<TimeStamp><when>2026-06-04T21:28:28Z</when></TimeStamp>
<styleUrl>#route</styleUrl>
<Point>
<coordinates>139.490022,35.806593,-0.001000</coordinates>
</Point>
<ExtendedData>
	<Data name="IconNumber">
		<value>901001</value>
	</Data>
</ExtendedData>
</Placemark>
<Placemark>
<name>GC0065</name>
<TimeStamp><when>2026-06-04T21:28:38Z</when></TimeStamp>
<styleUrl>#route</styleUrl>
<Point>
<coordinates>139.489195,35.806151,-0.001000</coordinates>
</Point>
<ExtendedData>
	<Data name="IconNumber">
		<value>901001</value>
	</Data>
</ExtendedData>
</Placemark>
<Placemark>
<name>GC0066</name>
<TimeStamp><when>2026-06-04T21:28:48Z</when></TimeStamp>
<styleUrl>#route</styleUrl>
<Point>
<coordinates>139.488707,35.805898,-0.001000</coordinates>
</Point>
<ExtendedData>
	<Data name="IconNumber">
		<value>901001</value>
	</Data>
</ExtendedData>
</Placemark>
<Placemark>
<name>GC0067</name>
<TimeStamp><when>2026-06-04T21:28:58Z</when></TimeStamp>
<styleUrl>#route</styleUrl>
<Point>
<coordinates>139.488198,35.805657,-0.001000</coordinates>
</Point>
<ExtendedData>
	<Data name="IconNumber">
		<value>901001</value>
	</Data>
</ExtendedData>
</Placemark>
<Placemark>
<name>GC0068</name>
<TimeStamp><when>2026-06-04T21:29:08Z</when></TimeStamp>
<styleUrl>#route</styleUrl>
<Point>
<coordinates>139.487592,35.805421,-0.001000</coordinates>
</Point>
<ExtendedData>
	<Data name="IconNumber">
		<value>901001</value>
	</Data>
</ExtendedData>
</Placemark>
<Placemark>
<name>GC0069</name>
<TimeStamp><when>2026-06-04T21:29:18Z</when></TimeStamp>
<styleUrl>#route</styleUrl>
<Point>
<coordinates>139.487023,35.805228,-0.001000</coordinates>
</Point>
<ExtendedData>
	<Data name="IconNumber">
		<value>901001</value>
	</Data>
</ExtendedData>
</Placemark>
<Placemark>
<name>GC0070</name>
<TimeStamp><when>2026-06-04T21:29:28Z</when></TimeStamp>
<styleUrl>#route</styleUrl>
<Point>
<coordinates>139.486728,35.805112,-0.001000</coordinates>
</Point>
<ExtendedData>
	<Data name="IconNumber">
		<value>901001</value>
	</Data>
</ExtendedData>
</Placemark>
<Placemark>
<name>GC0071</name>
<TimeStamp><when>2026-06-04T21:29:38Z</when></TimeStamp>
<styleUrl>#route</styleUrl>
<Point>
<coordinates>139.486594,35.805039,-0.001000</coordinates>
</Point>
<ExtendedData>
	<Data name="IconNumber">
		<value>901001</value>
	</Data>
</ExtendedData>
</Placemark>
<Placemark>
<name>GC0072</name>
<TimeStamp><when>2026-06-04T21:29:48Z</when></TimeStamp>
<styleUrl>#route</styleUrl>
<Point>
<coordinates>139.486427,35.804936,-0.001000</coordinates>
</Point>
<ExtendedData>
	<Data name="IconNumber">
		<value>901001</value>
	</Data>
</ExtendedData>
</Placemark>
<Placemark>
<name>GC0073</name>
<TimeStamp><when>2026-06-04T21:29:58Z</when></TimeStamp>
<styleUrl>#route</styleUrl>
<Point>
<coordinates>139.486100,35.804739,-0.001000</coordinates>
</Point>
<ExtendedData>
	<Data name="IconNumber">
		<value>901001</value>
	</Data>
</ExtendedData>
</Placemark>
<Placemark>
<name>GC0074</name>
<TimeStamp><when>2026-06-04T21:30:08Z</when></TimeStamp>
<styleUrl>#route</styleUrl>
<Point>
<coordinates>139.485800,35.804567,-0.001000</coordinates>
</Point>
<ExtendedData>
	<Data name="IconNumber">
		<value>901001</value>
	</Data>
</ExtendedData>
</Placemark>
<Placemark>
<name>GC0075</name>
<TimeStamp><when>2026-06-04T21:30:18Z</when></TimeStamp>
<styleUrl>#route</styleUrl>
<Point>
<coordinates>139.485660,35.804499,-0.001000</coordinates>
</Point>
<ExtendedData>
	<Data name="IconNumber">
		<value>901001</value>
	</Data>
</ExtendedData>
</Placemark>
<Placemark>
<name>GC0076</name>
<TimeStamp><when>2026-06-04T21:30:28Z</when></TimeStamp>
<styleUrl>#route</styleUrl>
<Point>
<coordinates>139.485569,35.804460,-0.001000</coordinates>
</Point>
<ExtendedData>
	<Data name="IconNumber">
		<value>901001</value>
	</Data>
</ExtendedData>
</Placemark>
<Placemark>
<name>GC0077</name>
<TimeStamp><when>2026-06-04T21:30:38Z</when></TimeStamp>
<styleUrl>#route</styleUrl>
<Point>
<coordinates>139.485290,35.804353,-0.001000</coordinates>
</Point>
<ExtendedData>
	<Data name="IconNumber">
		<value>901001</value>
	</Data>
</ExtendedData>
</Placemark>
<Placemark>
<name>GC0078</name>
<TimeStamp><when>2026-06-04T21:30:48Z</when></TimeStamp>
<styleUrl>#route</styleUrl>
<Point>
<coordinates>139.483847,35.803864,-0.001000</coordinates>
</Point>
<ExtendedData>
	<Data name="IconNumber">
		<value>901001</value>
	</Data>
</ExtendedData>
</Placemark>
<Placemark>
<name>GC0079</name>
<TimeStamp><when>2026-06-04T21:30:58Z</when></TimeStamp>
<styleUrl>#route</styleUrl>
<Point>
<coordinates>139.482415,35.803379,-0.001000</coordinates>
</Point>
<ExtendedData>
	<Data name="IconNumber">
		<value>901001</value>
	</Data>
</ExtendedData>
</Placemark>
<Placemark>
<name>GC0080</name>
<TimeStamp><when>2026-06-04T21:31:08Z</when></TimeStamp>
<styleUrl>#route</styleUrl>
<Point>
<coordinates>139.481626,35.803117,-0.001000</coordinates>
</Point>
<ExtendedData>
	<Data name="IconNumber">
		<value>901001</value>
	</Data>
</ExtendedData>
</Placemark>
<Placemark>
<name>GC0081</name>
<TimeStamp><when>2026-06-04T21:31:18Z</when></TimeStamp>
<styleUrl>#route</styleUrl>
<Point>
<coordinates>139.481165,35.802937,-0.001000</coordinates>
</Point>
<ExtendedData>
	<Data name="IconNumber">
		<value>901001</value>
	</Data>
</ExtendedData>
</Placemark>
<Placemark>
<name>GC0082</name>
<TimeStamp><when>2026-06-04T21:31:28Z</when></TimeStamp>
<styleUrl>#route</styleUrl>
<Point>
<coordinates>139.480918,35.802834,-0.001000</coordinates>
</Point>
<ExtendedData>
	<Data name="IconNumber">
		<value>901001</value>
	</Data>
</ExtendedData>
</Placemark>
<Placemark>
<name>GC0083</name>
<TimeStamp><when>2026-06-04T21:31:38Z</when></TimeStamp>
<styleUrl>#route</styleUrl>
<Point>
<coordinates>139.480806,35.802786,-0.001000</coordinates>
</Point>
<ExtendedData>
	<Data name="IconNumber">
		<value>901001</value>
	</Data>
</ExtendedData>
</Placemark>
<Placemark>
<name>GC0084</name>
<TimeStamp><when>2026-06-04T21:31:48Z</when></TimeStamp>
<styleUrl>#route</styleUrl>
<Point>
<coordinates>139.480704,35.802713,-0.001000</coordinates>
</Point>
<ExtendedData>
	<Data name="IconNumber">
		<value>901001</value>
	</Data>
</ExtendedData>
</Placemark>
<Placemark>
<name>GC0085</name>
<TimeStamp><when>2026-06-04T21:31:58Z</when></TimeStamp>
<styleUrl>#route</styleUrl>
<Point>
<coordinates>139.480532,35.802567,-0.001000</coordinates>
</Point>
<ExtendedData>
	<Data name="IconNumber">
		<value>901001</value>
	</Data>
</ExtendedData>
</Placemark>
<Placemark>
<name>GC0086</name>
<TimeStamp><when>2026-06-04T21:32:08Z</when></TimeStamp>
<styleUrl>#route</styleUrl>
<Point>
<coordinates>139.480446,35.802507,-0.001000</coordinates>
</Point>
<ExtendedData>
	<Data name="IconNumber">
		<value>901001</value>
	</Data>
</ExtendedData>
</Placemark>
<Placemark>
<name>GC0087</name>
<TimeStamp><when>2026-06-04T21:32:18Z</when></TimeStamp>
<styleUrl>#route</styleUrl>
<Point>
<coordinates>139.480339,35.802434,-0.001000</coordinates>
</Point>
<ExtendedData>
	<Data name="IconNumber">
		<value>901001</value>
	</Data>
</ExtendedData>
</Placemark>
<Placemark>
<name>GC0088</name>
<TimeStamp><when>2026-06-04T21:32:28Z</when></TimeStamp>
<styleUrl>#route</styleUrl>
<Point>
<coordinates>139.480264,35.802392,-0.001000</coordinates>
</Point>
<ExtendedData>
	<Data name="IconNumber">
		<value>901001</value>
	</Data>
</ExtendedData>
</Placemark>
<Placemark>
<name>GC0089</name>
<TimeStamp><when>2026-06-04T21:32:38Z</when></TimeStamp>
<styleUrl>#route</styleUrl>
<Point>
<coordinates>139.480167,35.802331,-0.001000</coordinates>
</Point>
<ExtendedData>
	<Data name="IconNumber">
		<value>901001</value>
	</Data>
</ExtendedData>
</Placemark>
<Placemark>
<name>HJ0067</name>
<TimeStamp><when>2026-06-04T21:32:48Z</when></TimeStamp>
<styleUrl>#route</styleUrl>
<Point>
<coordinates>139.480003,35.802270,70.548000</coordinates>
</Point>
<ExtendedData>
	<Data name="IconNumber">
		<value>901001</value>
	</Data>
</ExtendedData>
</Placemark>
</Folder>
<Placemark>
<name>Path</name>
<Style>
<LineStyle>
 <color>ff0000ff</color>
 <width>2</width>
</LineStyle>
</Style>
<LineString>
<tessellate>1</tessellate>
<coordinates>
139.515454,35.817880,-0.001000
139.515165,35.817631,-0.001000
139.515052,35.817541,-0.001000
139.514875,35.817425,-0.001000
139.514338,35.817202,-0.001000
139.514167,35.817124,-0.001000
139.513153,35.816644,-0.001000
139.512997,35.816566,-0.001000
139.512590,35.816416,-0.001000
139.512439,35.816365,-0.001000
139.512010,35.816257,-0.001000
139.511302,35.816120,-0.001000
139.511109,35.816051,-0.001000
139.510659,35.815880,-0.001000
139.510224,35.815725,-0.001000
139.509194,35.815442,-0.001000
139.509044,35.815391,-0.001000
139.508014,35.815026,-0.001000
139.507617,35.814927,-0.001000
139.506898,35.814785,-0.001000
139.506313,35.814670,-0.001000
139.505750,35.814597,-0.001000
139.504886,35.814485,-0.001000
139.503883,35.814266,-0.001000
139.503486,35.814198,-0.001000
139.503293,35.814172,-0.001000
139.502419,35.814069,-0.001000
139.502183,35.814043,-0.001000
139.501974,35.814017,-0.001000
139.501083,35.813850,-0.001000
139.500804,35.813794,-0.001000
139.500648,35.813756,-0.001000
139.500412,35.813687,-0.001000
139.500273,35.813622,-0.001000
139.500112,35.813541,-0.001000
139.499624,35.813210,-0.001000
139.499468,35.813125,-0.001000
139.499082,35.812850,-0.001000
139.498819,35.812631,-0.001000
139.498594,35.812429,-0.001000
139.498176,35.812056,-0.001000
139.498004,35.811914,-0.001000
139.497870,35.811811,-0.001000
139.497720,35.811708,-0.001000
139.497505,35.811640,-0.001000
139.496920,35.811511,-0.001000
139.496598,35.811434,-0.001000
139.496400,35.811378,-0.001000
139.496234,35.811322,-0.001000
139.496051,35.811241,-0.001000
139.495933,35.811168,-0.001000
139.495735,35.811018,-0.001000
139.495177,35.810558,-0.001000
139.494823,35.810288,-0.001000
139.494265,35.809842,-0.001000
139.493889,35.809528,-0.001000
139.493514,35.809228,-0.001000
139.493043,35.808836,-0.001000
139.492248,35.808219,-0.001000
139.491770,35.807833,-0.001000
139.490998,35.807237,-0.001000
139.490660,35.807001,-0.001000
139.490252,35.806726,-0.001000
139.490022,35.806593,-0.001000
139.489195,35.806151,-0.001000
139.488707,35.805898,-0.001000
139.488198,35.805657,-0.001000
139.487592,35.805421,-0.001000
139.487023,35.805228,-0.001000
139.486728,35.805112,-0.001000
139.486594,35.805039,-0.001000
139.486427,35.804936,-0.001000
139.486100,35.804739,-0.001000
139.485800,35.804567,-0.001000
139.485660,35.804499,-0.001000
139.485569,35.804460,-0.001000
139.485290,35.804353,-0.001000
139.483847,35.803864,-0.001000
139.482415,35.803379,-0.001000
139.481626,35.803117,-0.001000
139.481165,35.802937,-0.001000
139.480918,35.802834,-0.001000
139.480806,35.802786,-0.001000
139.480704,35.802713,-0.001000
139.480532,35.802567,-0.001000
139.480446,35.802507,-0.001000
139.480339,35.802434,-0.001000
139.480264,35.802392,-0.001000
139.480167,35.802331,-0.001000
139.480003,35.802270,70.548000
</coordinates>
</LineString>
</Placemark>
</Folder>
</Folder>
</Document>
</kml>
